{
    "links": {
        "self": "http://www.neowsapp.com/rest/v1/neo/3696453?api_key=iIulBulltgU6a56xZRHN4H3l9WmuAYTsLGpBGhQ2"
    },
    "id": "3696453",
    "neo_reference_id": "3696453",
    "name": "(2014 WS7)",
    "designation": "2014 WS7",
    "nasa_jpl_url": "http://ssd.jpl.nasa.gov/sbdb.cgi?sstr=3696453",
    "absolute_magnitude_h": 27.3,
    "estimated_diameter": {
        "kilometers": {
            "estimated_diameter_min": 0.0092162655,
            "estimated_diameter_max": 0.0206081961
        },
        "meters": {
            "estimated_diameter_min": 9.216265485,
            "estimated_diameter_max": 20.6081961232
        },
        "miles": {
            "estimated_diameter_min": 0.0057267201,
            "estimated_diameter_max": 0.0128053354
        },
        "feet": {
            "estimated_diameter_min": 30.2370924539,
            "estimated_diameter_max": 67.6121941689
        }
    },
    "is_potentially_hazardous_asteroid": false,
    "close_approach_data": [
        {
            "close_approach_date": "2014-11-21",
            "close_approach_date_full": "2014-Nov-21 19:51",
            "epoch_date_close_approach": 1416599460000,
            "relative_velocity": {
                "kilometers_per_second": "8.1044054067",
                "kilometers_per_hour": "29175.8594640436",
                "miles_per_hour": "18128.7444541998"
            },
            "miss_distance": {
                "astronomical": "0.0113297651",
                "lunar": "4.4072786239",
                "kilometers": "1694908.726560337",
                "miles": "1053167.4466611706"
            },
            "orbiting_body": "Earth"
        }
    ],
    "orbital_data": {
        "orbit_id": "4",
        "orbit_determination_date": "2019-07-11 06:08:31",
        "first_observation_date": "2014-11-19",
        "last_observation_date": "2014-11-22",
        "data_arc_in_days": 3,
        "observations_used": 30,
        "orbit_uncertainty": "7",
        "minimum_orbit_intersection": ".0105411",
        "jupiter_tisserand_invariant": "3.803",
        "epoch_osculation": "2459000.5",
        "eccentricity": ".4761618254263904",
        "semi_major_axis": "1.887856504330335",
        "inclination": "8.67629542198768",
        "ascending_node_longitude": "238.2100638552887",
        "orbital_period": "947.4403958274248",
        "perihelion_distance": ".9889313050853182",
        "perihelion_argument": "194.3853642435842",
        "aphelion_distance": "2.786781703575351",
        "perihelion_time": "2458890.284914214131",
        "mean_anomaly": "41.87855094384219",
        "mean_motion": ".3799711323112864",
        "equinox": "J2000",
        "orbit_class": {
            "orbit_class_type": "APO",
            "orbit_class_description": "Near-Earth asteroid orbits which cross the Earth’s orbit similar to that of 1862 Apollo",
            "orbit_class_range": "a (semi-major axis) > 1.0 AU; q (perihelion) < 1.017 AU"
        }
    },
    "is_sentry_object": false
}